{
  "type": "FeatureCollection",
  "features": [
    {
      "type": "Feature",
      "properties": {
        "norad_id": 39160,
        "name": "VNREDSAT 1",
        "group": "resource",
        "lat": -43.3514761554569,
        "lon": 45.243515845488794,
        "alt_km": 684.5671753105416,
        "timestamp": "2025-12-08T05:48:08.704562+00:00",
        "meta_object_name": "VNREDSAT 1",
        "meta_object_id": "2013-021B",
        "meta_epoch": "2025-12-07T21:48:20.948256",
        "meta_mean_motion": 14.64911239,
        "meta_eccentricity": 0.00013113,
        "meta_inclination": 97.938,
        "meta_ra_of_asc_node": 37.3528,
        "meta_arg_of_pericenter": 83.0176,
        "meta_mean_anomaly": 277.1177,
        "meta_ephemeris_type": 0,
        "meta_classification_type": "U",
        "meta_norad_cat_id": 39160,
        "meta_element_set_no": 999,
        "meta_rev_at_epoch": 67228,
        "meta_bstar": 0.00022168699,
        "meta_mean_motion_dot": 1.14e-05,
        "meta_mean_motion_ddot": 0,
        "tle_line1": "1 39160U 13021B   25341.90857579  .00001140  00000+0  22169-3 0  9999",
        "tle_line2": "2 39160  97.9380  37.3528 0001311  83.0176 277.1177 14.64911239672283"
      },
      "geometry": {
        "type": "Point",
        "coordinates": [
          45.243515845488794,
          -43.3514761554569
        ]
      }
    },
    {
      "type": "Feature",
      "properties": {
        "norad_id": 39227,
        "name": "ARIRANG-5 (KOMPSAT-5)",
        "group": "resource",
        "lat": 64.11165393164859,
        "lon": 2.611684757242351,
        "alt_km": 544.8366841886555,
        "timestamp": "2025-12-08T05:48:08.704573+00:00",
        "meta_object_name": "ARIRANG-5 (KOMPSAT-5)",
        "meta_object_id": "2013-042A",
        "meta_epoch": "2025-12-07T22:54:34.813440",
        "meta_mean_motion": 15.04526891,
        "meta_eccentricity": 0.00038418,
        "meta_inclination": 97.6149,
        "meta_ra_of_asc_node": 166.3272,
        "meta_arg_of_pericenter": 70.7281,
        "meta_mean_anomaly": 289.4361,
        "meta_ephemeris_type": 0,
        "meta_classification_type": "U",
        "meta_norad_cat_id": 39227,
        "meta_element_set_no": 999,
        "meta_rev_at_epoch": 67510,
        "meta_bstar": 0.0001614938,
        "meta_mean_motion_dot": 2.202e-05,
        "meta_mean_motion_ddot": 0,
        "tle_line1": "1 39227U 13042A   25341.95456960  .00002202  00000+0  16149-3 0  9991",
        "tle_line2": "2 39227  97.6149 166.3272 0003841  70.7281 289.4361 15.04526891675102"
      },
      "geometry": {
        "type": "Point",
        "coordinates": [
          2.611684757242351,
          64.11165393164859
        ]
      }
    },
    {
      "type": "Feature",
      "properties": {
        "norad_id": 39418,
        "name": "SKYSAT-A",
        "group": "resource",
        "lat": 13.399911199257291,
        "lon": 30.810076087468357,
        "alt_km": 539.7839189888855,
        "timestamp": "2025-12-08T05:48:08.704584+00:00",
        "meta_object_name": "SKYSAT-A",
        "meta_object_id": "2013-066C",
        "meta_epoch": "2025-12-07T17:01:56.795232",
        "meta_mean_motion": 15.11546955,
        "meta_eccentricity": 0.00206156,
        "meta_inclination": 97.4108,
        "meta_ra_of_asc_node": 32.0711,
        "meta_arg_of_pericenter": 255.2492,
        "meta_mean_anomaly": 104.6454,
        "meta_ephemeris_type": 0,
        "meta_classification_type": "U",
        "meta_norad_cat_id": 39418,
        "meta_element_set_no": 999,
        "meta_rev_at_epoch": 65954,
        "meta_bstar": 0.00036130607,
        "meta_mean_motion_dot": 6.094e-05,
        "meta_mean_motion_ddot": 0,
        "tle_line1": "1 39418U 13066C   25341.70968513  .00006094  00000+0  36131-3 0  9990",
        "tle_line2": "2 39418  97.4108  32.0711 0020615 255.2492 104.6454 15.11546955659548"
      },
      "geometry": {
        "type": "Point",
        "coordinates": [
          30.810076087468357,
          13.399911199257291
        ]
      }
    },
    {
      "type": "Feature",
      "properties": {
        "norad_id": 39419,
        "name": "DUBAISAT-2",
        "group": "resource",
        "lat": -27.841819508287163,
        "lon": 148.82760774724682,
        "alt_km": 552.1461993674575,
        "timestamp": "2025-12-08T05:48:08.704594+00:00",
        "meta_object_name": "DUBAISAT-2",
        "meta_object_id": "2013-066D",
        "meta_epoch": "2025-12-07T22:30:48.852288",
        "meta_mean_motion": 15.08283178,
        "meta_eccentricity": 0.00110337,
        "meta_inclination": 97.4444,
        "meta_ra_of_asc_node": 332.4934,
        "meta_arg_of_pericenter": 338.3974,
        "meta_mean_anomaly": 21.6788,
        "meta_ephemeris_type": 0,
        "meta_classification_type": "U",
        "meta_norad_cat_id": 39419,
        "meta_element_set_no": 999,
        "meta_rev_at_epoch": 65754,
        "meta_bstar": 0.00046251997,
        "meta_mean_motion_dot": 7.121e-05,
        "meta_mean_motion_ddot": 0,
        "tle_line1": "1 39419U 13066D   25341.93806542  .00007121  00000+0  46252-3 0  9996",
        "tle_line2": "2 39419  97.4444 332.4934 0011033 338.3974  21.6788 15.08283178657545"
      },
      "geometry": {
        "type": "Point",
        "coordinates": [
          148.82760774724682,
          -27.841819508287163
        ]
      }
    },
    {
      "type": "Feature",
      "properties": {
        "norad_id": 39574,
        "name": "GPM-CORE",
        "group": "resource",
        "lat": 64.10091655121148,
        "lon": -26.44210753943122,
        "alt_km": 430.03418948951,
        "timestamp": "2025-12-08T05:48:08.704605+00:00",
        "meta_object_name": "GPM-CORE",
        "meta_object_id": "2014-009C",
        "meta_epoch": "2025-12-07T23:10:19.706304",
        "meta_mean_motion": 15.45389122,
        "meta_eccentricity": 0.00105028,
        "meta_inclination": 64.9739,
        "meta_ra_of_asc_node": 228.6778,
        "meta_arg_of_pericenter": 269.9346,
        "meta_mean_anomaly": 90.0591,
        "meta_ephemeris_type": 0,
        "meta_classification_type": "U",
        "meta_norad_cat_id": 39574,
        "meta_element_set_no": 999,
        "meta_rev_at_epoch": 66827,
        "meta_bstar": 0.00037729317,
        "meta_mean_motion_dot": 0.00017955,
        "meta_mean_motion_ddot": 0,
        "tle_line1": "1 39574U 14009C   25341.96550586  .00017955  00000+0  37729-3 0  9998",
        "tle_line2": "2 39574  64.9739 228.6778 0010502 269.9346  90.0591 15.45389122668278"
      },
      "geometry": {
        "type": "Point",
        "coordinates": [
          -26.44210753943122,
          64.10091655121148
        ]
      }
    },
    {
      "type": "Feature",
      "properties": {
        "norad_id": 39634,
        "name": "SENTINEL-1A",
        "group": "resource",
        "lat": -81.80388523517944,
        "lon": 80.46775258095175,
        "alt_km": 703.9867986919944,
        "timestamp": "2025-12-08T05:48:08.704615+00:00",
        "meta_object_name": "SENTINEL-1A",
        "meta_object_id": "2014-016A",
        "meta_epoch": "2025-12-07T23:38:00.636576",
        "meta_mean_motion": 14.59199506,
        "meta_eccentricity": 0.00012431,
        "meta_inclination": 98.1803,
        "meta_ra_of_asc_node": 347.2964,
        "meta_arg_of_pericenter": 89.2088,
        "meta_mean_anomaly": 270.9254,
        "meta_ephemeris_type": 0,
        "meta_classification_type": "U",
        "meta_norad_cat_id": 39634,
        "meta_element_set_no": 999,
        "meta_rev_at_epoch": 62213,
        "meta_bstar": 7.7366919e-05,
        "meta_mean_motion_dot": 3.19e-06,
        "meta_mean_motion_ddot": 0,
        "tle_line1": "1 39634U 14016A   25341.98472959  .00000319  00000+0  77367-4 0  9991",
        "tle_line2": "2 39634  98.1803 347.2964 0001243  89.2088 270.9254 14.59199506622138"
      },
      "geometry": {
        "type": "Point",
        "coordinates": [
          80.46775258095175,
          -81.80388523517944
        ]
      }
    },
    {
      "type": "Feature",
      "properties": {
        "norad_id": 39731,
        "name": "KAZEOSAT 1",
        "group": "resource",
        "lat": 18.486357906728024,
        "lon": -122.93741774478416,
        "alt_km": 751.6196010141057,
        "timestamp": "2025-12-08T05:48:08.704624+00:00",
        "meta_object_name": "KAZEOSAT 1",
        "meta_object_id": "2014-024A",
        "meta_epoch": "2025-12-07T22:23:47.009472",
        "meta_mean_motion": 14.42058196,
        "meta_eccentricity": 0.00010786,
        "meta_inclination": 98.3441,
        "meta_ra_of_asc_node": 53.9484,
        "meta_arg_of_pericenter": 100.0332,
        "meta_mean_anomaly": 260.098,
        "meta_ephemeris_type": 0,
        "meta_classification_type": "U",
        "meta_norad_cat_id": 39731,
        "meta_element_set_no": 999,
        "meta_rev_at_epoch": 61099,
        "meta_bstar": 0.00013951434,
        "meta_mean_motion_dot": 4.15e-06,
        "meta_mean_motion_ddot": 0,
        "tle_line1": "1 39731U 14024A   25341.93318298  .00000415  00000+0  13951-3 0  9993",
        "tle_line2": "2 39731  98.3441  53.9484 0001078 100.0332 260.0980 14.42058196610992"
      },
      "geometry": {
        "type": "Point",
        "coordinates": [
          -122.93741774478416,
          18.486357906728024
        ]
      }
    }
  ]
}